{"type": "FeatureCollection", "features": [ {"type": "Feature", "properties": {"norad_id": 36203, "name": "FENGYUN 1C DEB", "group": "fengyun-1c-debris", "lat": -57.208415431585124, "lon": 106.8434993656945, "alt_km": 669.4310446668342, "timestamp": "2025-12-22T05:49:03.788023+00:00", "meta": {"OBJECT_NAME": "FENGYUN 1C DEB", "OBJECT_ID": "1999-025DUC", "EPOCH": "2025-12-16T02:34:12.047232", "MEAN_MOTION": 14.78467362, "ECCENTRICITY": 0.00836343, "INCLINATION": 99.0958, "RA_OF_ASC_NODE": 294.3166, "ARG_OF_PERICENTER": 138.0502, "MEAN_ANOMALY": 222.7152, "EPHEMERIS_TYPE": 0, "CLASSIFICATION_TYPE": "U", "NORAD_CAT_ID": 36203, "ELEMENT_SET_NO": 999, "REV_AT_EPOCH": 63479, "BSTAR": 0.00071031238, "MEAN_MOTION_DOT": 5.428e-05, "MEAN_MOTION_DDOT": 0}, "tle": {"line1": "1 36203U 99025DUC 25350.10708388  .00005428  00000+0  71031-3 0  9992", "line2": "2 36203  99.0958 294.3166 0083634 138.0502 222.7152 14.78467362634798"}}, "geometry": {"type": "Point", "coordinates": [106.8434993656945, -57.208415431585124]}}, {"type": "Feature", "properties": {"norad_id": 36204, "name": "FENGYUN 1C DEB", "group": "fengyun-1c-debris", "lat": -48.39175080244939, "lon": 104.65414656228215, "alt_km": 797.2836655953124, "timestamp": "2025-12-22T05:49:03.788033+00:00", "meta": {"OBJECT_NAME": "FENGYUN 1C DEB", "OBJECT_ID": "1999-025DUD", "EPOCH": "2025-12-20T00:29:04.036704", "MEAN_MOTION": 14.34620289, "ECCENTRICITY": 0.00199406, "INCLINATION": 99.2912, "RA_OF_ASC_NODE": 91.6441, "ARG_OF_PERICENTER": 143.0845, "MEAN_ANOMALY": 217.1715, "EPHEMERIS_TYPE": 0, "CLASSIFICATION_TYPE": "U", "NORAD_CAT_ID": 36204, "ELEMENT_SET_NO": 999, "REV_AT_EPOCH": 94532, "BSTAR": 0.00076658222, "MEAN_MOTION_DOT": 2.122e-05, "MEAN_MOTION_DDOT": 0}, "tle": {"line1": "1 36204U 99025DUD 25354.02018561  .00002122  00000+0  76658-3 0  9993", "line2": "2 36204  99.2912  91.6441 0019940 143.0845 217.1715 14.34620289945328"}}, "geometry": {"type": "Point", "coordinates": [104.65414656228215, -48.39175080244939]}}, {"type": "Feature", "properties": {"norad_id": 36206, "name": "FENGYUN 1C DEB", "group": "fengyun-1c-debris", "lat": -59.61596381644855, "lon": -175.7159882291415, "alt_km": 834.7357207495415, "timestamp": "2025-12-22T05:49:03.788043+00:00", "meta": {"OBJECT_NAME": "FENGYUN 1C DEB", "OBJECT_ID": "1999-025DUF", "EPOCH": "2025-12-16T08:29:03.735744", "MEAN_MOTION": 14.21592437, "ECCENTRICITY": 0.00302163, "INCLINATION": 98.4786, "RA_OF_ASC_NODE": 13.3653, "ARG_OF_PERICENTER": 8.6843, "MEAN_ANOMALY": 351.4852, "EPHEMERIS_TYPE": 0, "CLASSIFICATION_TYPE": "U", "NORAD_CAT_ID": 36206, "ELEMENT_SET_NO": 999, "REV_AT_EPOCH": 64472, "BSTAR": 0.00060166506, "MEAN_MOTION_DOT": 1.283e-05, "MEAN_MOTION_DDOT": 0}, "tle": {"line1": "1 36206U 99025DUF 25350.35351546  .00001283  00000+0  60167-3 0  9995", "line2": "2 36206  98.4786  13.3653 0030216   8.6843 351.4852 14.21592437644722"}}, "geometry": {"type": "Point", "coordinates": [-175.7159882291415, -59.61596381644855]}}, {"type": "Feature", "properties": {"norad_id": 36211, "name": "FENGYUN 1C DEB", "group": "fengyun-1c-debris", "lat": 9.799784372769894, "lon": 170.62186270777977, "alt_km": 640.906301441376, "timestamp": "2025-12-22T05:49:03.788055+00:00", "meta": {"OBJECT_NAME": "FENGYUN 1C DEB", "OBJECT_ID": "1999-025DUL", "EPOCH": "2025-12-20T17:38:46.714560", "MEAN_MOTION": 14.26014194, "ECCENTRICITY": 0.02668837, "INCLINATION": 98.5045, "RA_OF_ASC_NODE": 347.6761, "ARG_OF_PERICENTER": 205.353, "MEAN_ANOMALY": 153.4356, "EPHEMERIS_TYPE": 0, "CLASSIFICATION_TYPE": "U", "NORAD_CAT_ID": 36211, "ELEMENT_SET_NO": 999, "REV_AT_EPOCH": 94483, "BSTAR": 0.00026610652, "MEAN_MOTION_DOT": 8.73e-06, "MEAN_MOTION_DDOT": 0}, "tle": {"line1": "1 36211U 99025DUL 25354.73526290  .00000873  00000+0  26611-3 0  9997", "line2": "2 36211  98.5045 347.6761 0266883 205.3530 153.4356 14.26014194944838"}}, "geometry": {"type": "Point", "coordinates": [170.62186270777977, 9.799784372769894]}}, {"type": "Feature", "properties": {"norad_id": 36216, "name": "FENGYUN 1C DEB", "group": "fengyun-1c-debris", "lat": -60.65142699051936, "lon": 31.801676453776242, "alt_km": 816.5198663019, "timestamp": "2025-12-22T05:49:03.788066+00:00", "meta": {"OBJECT_NAME": "FENGYUN 1C DEB", "OBJECT_ID": "1999-025DUR", "EPOCH": "2025-12-20T06:43:05.664288", "MEAN_MOTION": 14.18868719, "ECCENTRICITY": 0.00445798, "INCLINATION": 98.6082, "RA_OF_ASC_NODE": 14.268, "ARG_OF_PERICENTER": 356.1028, "MEAN_ANOMALY": 3.9794, "EPHEMERIS_TYPE": 0, "CLASSIFICATION_TYPE": "U", "NORAD_CAT_ID": 36216, "ELEMENT_SET_NO": 999, "REV_AT_EPOCH": 64479, "BSTAR": 0.00028691097, "MEAN_MOTION_DOT": 5.6e-06, "MEAN_MOTION_DDOT": 0}, "tle": {"line1": "1 36216U 99025DUR 25354.27992667  .00000560  00000+0  28691-3 0  9999", "line2": "2 36216  98.6082  14.2680 0044579 356.1028   3.9794 14.18868719644793"}}, "geometry": {"type": "Point", "coordinates": [31.801676453776242, -60.65142699051936]}}, {"type": "Feature", "properties": {"norad_id": 36218, "name": "FENGYUN 1C DEB", "group": "fengyun-1c-debris", "lat": -3.8848836146238566, "lon": 17.703382285920412, "alt_km": 653.9334985053438, "timestamp": "2025-12-22T05:49:03.788076+00:00", "meta": {"OBJECT_NAME": "FENGYUN 1C DEB", "OBJECT_ID": "1999-025DUT", "EPOCH": "2025-12-17T00:54:51.143616", "MEAN_MOTION": 14.71047478, "ECCENTRICITY": 0.00725997, "INCLINATION": 99.075, "RA_OF_ASC_NODE": 192.5323, "ARG_OF_PERICENTER": 282.3708, "MEAN_ANOMALY": 76.9376, "EPHEMERIS_TYPE": 0, "CLASSIFICATION_TYPE": "U", "NORAD_CAT_ID": 36218, "ELEMENT_SET_NO": 999, "REV_AT_EPOCH": 59206, "BSTAR": 0.00093044583, "MEAN_MOTION_DOT": 5.892e-05, "MEAN_MOTION_DDOT": 0}, "tle": {"line1": "1 36218U 99025DUT 25351.03809194  .00005892  00000+0  93045-3 0  9992", "line2": "2 36218  99.0750 192.5323 0072599 282.3708  76.9376 14.71047478592062"}}, "geometry": {"type": "Point", "coordinates": [17.703382285920412, -3.8848836146238566]}}, {"type": "Feature", "properties": {"norad_id": 36224, "name": "FENGYUN 1C DEB", "group": "fengyun-1c-debris", "lat": -33.24974664157705, "lon": 49.20844628555397, "alt_km": 773.4987175090209, "timestamp": "2025-12-22T05:49:03.788088+00:00", "meta": {"OBJECT_NAME": "FENGYUN 1C DEB", "OBJECT_ID": "1999-025DUZ", "EPOCH": "2025-12-21T09:34:36.458112", "MEAN_MOTION": 14.12766367, "ECCENTRICITY": 0.01141721, "INCLINATION": 98.7788, "RA_OF_ASC_NODE": 42.567, "ARG_OF_PERICENTER": 327.3018, "MEAN_ANOMALY": 32.1122, "EPHEMERIS_TYPE": 0, "CLASSIFICATION_TYPE": "U", "NORAD_CAT_ID": 36224, "ELEMENT_SET_NO": 999, "REV_AT_EPOCH": 64554, "BSTAR": 0.00010323044, "MEAN_MOTION_DOT": 1.6e-06, "MEAN_MOTION_DDOT": 0}, "tle": {"line1": "1 36224U 99025DUZ 25355.39903308  .00000160  00000+0  10323-3 0  9995", "line2": "2 36224  98.7788  42.5670 0114172 327.3018  32.1122 14.12766367645548"}}, "geometry": {"type": "Point", "coordinates": [49.20844628555397, -33.24974664157705]}}, {"type": "Feature", "properties": {"norad_id": 36225, "name": "FENGYUN 1C DEB", "group": "fengyun-1c-debris", "lat": 45.982972899387654, "lon": 109.76422253612478, "alt_km": 567.4219631298756, "timestamp": "2025-12-22T05:49:03.788098+00:00", "meta": {"OBJECT_NAME": "FENGYUN 1C DEB", "OBJECT_ID": "1999-025DVA", "EPOCH": "2025-12-21T02:30:49.364928", "MEAN_MOTION": 15.0661612, "ECCENTRICITY": 0.00437162, "INCLINATION": 98.8177, "RA_OF_ASC_NODE": 117.7078, "ARG_OF_PERICENTER": 264.5094, "MEAN_ANOMALY": 95.1142, "EPHEMERIS_TYPE": 0, "CLASSIFICATION_TYPE": "U", "NORAD_CAT_ID": 36225, "ELEMENT_SET_NO": 999, "REV_AT_EPOCH": 66898, "BSTAR": 0.0017428926, "MEAN_MOTION_DOT": 0.00026395, "MEAN_MOTION_DDOT": 0}, "tle": {"line1": "1 36225U 99025DVA 25355.10473802  .00026395  00000+0  17429-2 0  9997", "line2": "2 36225  98.8177 117.7078 0043716 264.5094  95.1142 15.06616120668989"}}, "geometry": {"type": "Point", "coordinates": [109.76422253612478, 45.982972899387654]}}, {"type": "Feature", "properties": {"norad_id": 36226, "name": "FENGYUN 1C DEB", "group": "fengyun-1c-debris", "lat": 36.097945216430595, "lon": 32.005255651909394, "alt_km": 805.1719554219244, "timestamp": "2025-12-22T05:49:03.788110+00:00", "meta": {"OBJECT_NAME": "FENGYUN 1C DEB", "OBJECT_ID": "1999-025DVB", "EPOCH": "2025-12-16T21:56:50.014464", "MEAN_MOTION": 14.10310742, "ECCENTRICITY": 0.0095148, "INCLINATION": 98.6088, "RA_OF_ASC_NODE": 33.2455, "ARG_OF_PERICENTER": 8.6109, "MEAN_ANOMALY": 351.6668, "EPHEMERIS_TYPE": 0, "CLASSIFICATION_TYPE": "U", "NORAD_CAT_ID": 36226, "ELEMENT_SET_NO": 999, "REV_AT_EPOCH": 63821, "BSTAR": 0.0011977074, "MEAN_MOTION_DOT": 2.175e-05, "MEAN_MOTION_DDOT": 0}, "tle": {"line1": "1 36226U 99025DVB 25350.91446776  .00002175  00000+0  11977-2 0  9994", "line2": "2 36226  98.6088  33.2455 0095148   8.6109 351.6668 14.10310742638211"}}, "geometry": {"type": "Point", "coordinates": [32.005255651909394, 36.097945216430595]}}, {"type": "Feature", "properties": {"norad_id": 36229, "name": "FENGYUN 1C DEB", "group": "fengyun-1c-debris", "lat": 57.22423265621847, "lon": -159.4835254494836, "alt_km": 804.8965341385256, "timestamp": "2025-12-22T05:49:03.788121+00:00", "meta": {"OBJECT_NAME": "FENGYUN 1C DEB", "OBJECT_ID": "1999-025DVE", "EPOCH": "2025-12-13T08:14:45.074400", "MEAN_MOTION": 14.07195739, "ECCENTRICITY": 0.01025541, "INCLINATION": 100.9257, "RA_OF_ASC_NODE": 207.239, "ARG_OF_PERICENTER": 120.9915, "MEAN_ANOMALY": 240.137, "EPHEMERIS_TYPE": 0, "CLASSIFICATION_TYPE": "U", "NORAD_CAT_ID": 36229, "ELEMENT_SET_NO": 999, "REV_AT_EPOCH": 63264, "BSTAR": 0.0024305202, "MEAN_MOTION_DOT": 4.215e-05, "MEAN_MOTION_DDOT": 0}, "tle": {"line1": "1 36229U 99025DVE 25347.34357725  .00004215  00000+0  24305-2 0  9991", "line2": "2 36229 100.9257 207.2390 0102554 120.9915 240.1370 14.07195739632649"}}, "geometry": {"type": "Point", "coordinates": [-159.4835254494836, 57.22423265621847]}}]}